{
"type": "FeatureCollection",
"name": "gates",
"crs": { "type": "name", "properties": { "name": "urn:ogc:def:crs:OGC:1.3:CRS84" } },
"features": [
{"type":"Feature","properties":{"id":null},"geometry":{"type":"Point","coordinates":[73.201136281774765,54.996173436720696]}},
{"type":"Feature","properties":{"id":null},"geometry":{"type":"Point","coordinates":[73.199293949408414,54.995615142577911]}},
{"type":"Feature","properties":{"id":null},"geometry":{"type":"Point","coordinates":[73.197390288660188,54.994311433616211]}},
{"type":"Feature","properties":{"id":null},"geometry":{"type":"Point","coordinates":[73.199015918875205,54.995430294600524]}},
{"type":"Feature","properties":{"id":null},"geometry":{"type":"Point","coordinates":[73.199814082207922,54.995961119223452]}},
{"type":"Feature","properties":{"id":null},"geometry":{"type":"Point","coordinates":[73.201654664830741,54.99686154676786]}},
{"type":"Feature","properties":{"id":null},"geometry":{"type":"Point","coordinates":[73.199331918338672,54.997624239069602]}},
{"type":"Feature","properties":{"id":null},"geometry":{"type":"Point","coordinates":[73.199669240192179,54.997756845635493]}},
{"type":"Feature","properties":{"id":null},"geometry":{"type":"Point","coordinates":[73.196108969003731,54.996913059424358]}},
{"type":"Feature","properties":{"id":null},"geometry":{"type":"Point","coordinates":[73.196273742559328,54.996551617630267]}},
{"type":"Feature","properties":{"id":null},"geometry":{"type":"Point","coordinates":[73.196692609989029,54.994466082673249]}},
{"type":"Feature","properties":{"id":null},"geometry":{"type":"Point","coordinates":[73.196715653815488,54.995439427937427]}},
{"type":"Feature","properties":{"id":null},"geometry":{"type":"Point","coordinates":[73.197544823712803,54.995704420654356]}},
{"type":"Feature","properties":{"id":null},"geometry":{"type":"Point","coordinates":[73.197145023520065,54.995960618666651]}},
{"type":"Feature","properties":{"id":null},"geometry":{"type":"Point","coordinates":[73.193177508778945,54.994282185520881]}},
{"type":"Feature","properties":{"id":null},"geometry":{"type":"Point","coordinates":[73.20127388152801,54.996345999292309]}}
]
}
