{
"type": "FeatureCollection",
"name": "places",
"crs": { "type": "name", "properties": { "name": "urn:ogc:def:crs:OGC:1.3:CRS84" } },
"features": [
{"type":"Feature","properties":{"id":1},"geometry":{"type":"MultiPolygon","coordinates":[[[[73.201079543735375,54.996197381054131],[73.201208588466983,54.996128450233691],[73.201068366632654,54.996049588555962],[73.20093932190106,54.996117351192176],[73.201079543735375,54.996197381054131]]]]}},
{"type":"Feature","properties":{"id":2},"geometry":{"type":"MultiPolygon","coordinates":[[[[73.196434120588691,54.995581992885185],[73.196793033056707,54.995833355386964],[73.198587595396774,54.994951703836144],[73.198196054522569,54.994689080464106],[73.196434120588691,54.995581992885185]]]]}},
{"type":"Feature","properties":{"id":3},"geometry":{"type":"MultiPolygon","coordinates":[[[[73.196949649406392,54.996062206438474],[73.197249830743274,54.996268546426556],[73.197837142054567,54.99596091187248],[73.197517383673969,54.995765825317982],[73.196949649406392,54.996062206438474]]]]}},
{"type":"Feature","properties":{"id":4},"geometry":{"type":"MultiPolygon","coordinates":[[[[73.19604910539573,54.99663339043348],[73.196975752131337,54.997241143745669],[73.197151945524723,54.997147355257674],[73.19623182447036,54.996524594111705],[73.19604910539573,54.99663339043348]]]]}},
{"type":"Feature","properties":{"id":5},"geometry":{"type":"MultiPolygon","coordinates":[[[[73.195683667246485,54.996772199103496],[73.195990374264611,54.996971032304018],[73.196192670382942,54.996869740042506],[73.19588596336483,54.99667465792632],[73.195683667246485,54.996772199103496]]]]}},
{"type":"Feature","properties":{"id":6},"geometry":{"type":"MultiPolygon","coordinates":[[[[73.200453940230446,54.996370778116706],[73.201073879947927,54.996044386116772],[73.200695390436209,54.99581928663202],[73.200081976399957,54.99613817719441],[73.201119559716574,54.996824721177177],[73.200075450718728,54.99733868353966],[73.198620223802948,54.996408294267646],[73.197974181360522,54.996734683294292],[73.198724634702728,54.997233640674743],[73.198457081772048,54.99736119268907],[73.196995329175039,54.996404542654147],[73.196655993750738,54.996580868108239],[73.197465178224078,54.997117342894974],[73.197119317118535,54.997304919791773],[73.19748475526778,54.997556271452552],[73.19878336583389,54.997683822436663],[73.199579498944743,54.997282410610666],[73.200310375243248,54.997751349263375],[73.201654665577976,54.997091082059129],[73.201654665577976,54.996607129279496],[73.200924080397328,54.99612319279337],[73.200453940230446,54.996370778116706]]]]}},
{"type":"Feature","properties":{"id":7},"geometry":{"type":"MultiPolygon","coordinates":[[[[73.192450192193732,54.994131938022967],[73.192704693761939,54.994308273508054],[73.192900464199056,54.994199470853879],[73.192998349417593,54.994248244494116],[73.193070131911199,54.994210726314627],[73.193252850985843,54.994330784365019],[73.193213696898411,54.994360798821255],[73.1935856607289,54.994600913659262],[73.193774905484744,54.994495863595205],[73.193833636615892,54.994540885085058],[73.19410771522783,54.994428331265297],[73.193128863042318,54.9937830165779],[73.192450192193732,54.994131938022967]]]]}},
{"type":"Feature","properties":{"id":9},"geometry":{"type":"MultiPolygon","coordinates":[[[[73.195478108287517,54.994799757667089],[73.195876174842951,54.995073635529174],[73.196848501347219,54.994578402954524],[73.196483063197959,54.994315777128442],[73.195478108287517,54.994799757667089]]]]}},
{"type":"Feature","properties":{"id":9},"geometry":{"type":"MultiPolygon","coordinates":[[[[73.197261250685429,54.996268546426556],[73.197979075621447,54.99673093171144],[73.198625118063873,54.996408294267646],[73.20007381929841,54.997334932013509],[73.201111402615041,54.996823783283595],[73.198944876444486,54.995383152770849],[73.197261250685429,54.996268546426556]]]]}},
{"type":"Feature","properties":{"id":10},"geometry":{"type":"MultiPolygon","coordinates":[[[[73.194833697265409,54.995859617049646],[73.196021371250481,54.996602439785896],[73.196432489168387,54.996388598292803],[73.196086628062844,54.996163500747613],[73.19634112963108,54.996005931711302],[73.195544996520184,54.995476945400931],[73.194833697265409,54.995859617049646]]]]}},
{"type":"Feature","properties":{"id":11},"geometry":{"type":"MultiPolygon","coordinates":[[[[73.200408260461785,54.995964663527637],[73.200701916117438,54.995810845376667],[73.200519197042823,54.995690791774116],[73.200460465911661,54.995717053530512],[73.200297323880775,54.995634516523737],[73.199938411412759,54.995825852051603],[73.200114604806146,54.995942153591329],[73.200251644112114,54.995878375369543],[73.200408260461785,54.995964663527637]]]]}},
{"type":"Feature","properties":{"id":12},"geometry":{"type":"MultiPolygon","coordinates":[[[[73.198907353777372,54.995139290902031],[73.199683909844524,54.995660778317131],[73.200160284574807,54.995413166436407],[73.199396779870099,54.994895427544627],[73.198907353777372,54.995139290902031]]]]}},
{"type":"Feature","properties":{"id":13},"geometry":{"type":"MultiPolygon","coordinates":[[[[73.198183003160096,54.994535257401594],[73.198802942877592,54.994940448584181],[73.199194483751768,54.99474910881564],[73.198561492671843,54.994343915692376],[73.198183003160096,54.994535257401594]]]]}},
{"type":"Feature","properties":{"id":14},"geometry":{"type":"MultiPolygon","coordinates":[[[[73.19408487534352,54.995021111153186],[73.194655872451733,54.995403787168328],[73.1950245734416,54.995219953069544],[73.194443787811537,54.99482789589014],[73.19408487534352,54.995021111153186]]]]}},
{"type":"Feature","properties":{"id":15},"geometry":{"type":"MultiPolygon","coordinates":[[[[73.193517141075915,54.994833523532371],[73.193559558003955,54.994861661731647],[73.193530192438388,54.994878544641693],[73.193693334469316,54.994976090204503],[73.194251280215042,54.994705963447075],[73.194042458415481,54.994572775276318],[73.193517141075915,54.994833523532371]]]]}},
{"type":"Feature","properties":{"id":16},"geometry":{"type":"MultiPolygon","coordinates":[[[[73.1977196797923,54.99405127365862],[73.197788199445284,54.994099109522239],[73.197791462285906,54.9940972336071],[73.197908924548159,54.994042832029692],[73.197838773474871,54.993994996098692],[73.1977196797923,54.99405127365862]]]]}}
]
}
