{
"type": "FeatureCollection",
"name": "routes",
"crs": { "type": "name", "properties": { "name": "urn:ogc:def:crs:OGC:1.3:CRS84" } },
"features": [
{"type":"Feature","properties":{"id":null},"geometry":{"type":"MultiLineString","coordinates":[[[73.201535611068223,54.995969902770078],[73.201589128502192,54.995945564289535],[73.201765922413401,54.996055776158535],[73.201580608313705,54.996148843722231],[73.202360205560694,54.996638669431192],[73.202462447822583,54.99682112797246],[73.201654664830741,54.996861546767853]]]}},
{"type":"Feature","properties":{"id":null},"geometry":{"type":"MultiLineString","coordinates":[[[73.202462447822583,54.996821127972467],[73.200277019474512,54.997907290094872],[73.199961772500316,54.99788524876702],[73.199723207222547,54.997748102453826],[73.199331918338657,54.997624239069587]]]}},
{"type":"Feature","properties":{"id":null},"geometry":{"type":"MultiLineString","coordinates":[[[73.201580608313705,54.996148843722231],[73.201273881527996,54.996345999292316]]]}},
{"type":"Feature","properties":{"id":null},"geometry":{"type":"MultiLineString","coordinates":[[[73.201136281774765,54.996173436720696],[73.201535611068223,54.995969902770078],[73.198219127697897,54.993855001852687],[73.197810158650299,54.994107277327736],[73.197624844550589,54.994222392791912],[73.197450180686516,54.994335058669684],[73.197390288660173,54.994311433616218]]]}},
{"type":"Feature","properties":{"id":null},"geometry":{"type":"MultiLineString","coordinates":[[[73.197450180686516,54.994335058669684],[73.197601414032249,54.994431191803336],[73.197281906963809,54.994587943423205],[73.19695174965976,54.994387105299438],[73.196692609989014,54.994466082673235]]]}},
{"type":"Feature","properties":{"id":null},"geometry":{"type":"MultiLineString","coordinates":[[[73.197624844550589,54.994222392791912],[73.197563871951701,54.994297248281455],[73.198797701747651,54.994987320503043],[73.198816872171776,54.995167337383116],[73.199117208816091,54.99535470102942],[73.199015918875205,54.995430294600524]]]}},
{"type":"Feature","properties":{"id":null},"geometry":{"type":"MultiLineString","coordinates":[[[73.199117208816091,54.99535470102942],[73.199430325743165,54.995564106417746],[73.199293949408414,54.995615142577904]]]}},
{"type":"Feature","properties":{"id":null},"geometry":{"type":"MultiLineString","coordinates":[[[73.199430325743165,54.995564106417746],[73.199952719800052,54.995878824732145],[73.199814082207922,54.995961119223452]]]}},
{"type":"Feature","properties":{"id":null},"geometry":{"type":"MultiLineString","coordinates":[[[73.197563871951701,54.994297248281455],[73.19762724085362,54.994436855690935],[73.197341814539129,54.994749133656534],[73.197237442230119,54.99485445038075],[73.196689487607756,54.995145906844691],[73.196367317980446,54.995266530011229],[73.196303416566721,54.995605742445996],[73.196859358865808,54.995970668130866],[73.197057453248249,54.995884947631993],[73.197145023520065,54.995960618666651]]]}},
{"type":"Feature","properties":{"id":null},"geometry":{"type":"MultiLineString","coordinates":[[[73.197057453248249,54.995884947632],[73.197544823712803,54.995704420654356]]]}},
{"type":"Feature","properties":{"id":null},"geometry":{"type":"MultiLineString","coordinates":[[[73.196859358865808,54.995970668130866],[73.19654411189164,54.996118841702348],[73.196825278111831,54.996317221987134],[73.196399268687273,54.996513152165591],[73.196273742559328,54.996551617630267]]]}},
{"type":"Feature","properties":{"id":null},"geometry":{"type":"MultiLineString","coordinates":[[[73.196859358865808,54.995970668130866],[73.196522811420408,54.996091901093877],[73.195602631063338,54.995464914528526],[73.194481161253123,54.994710558275294],[73.193586541461514,54.995153866760319],[73.193369276654963,54.994906496333861],[73.1927473028951,54.994504822279524],[73.193177508778945,54.994282185520866]]]}},
{"type":"Feature","properties":{"id":null},"geometry":{"type":"MultiLineString","coordinates":[[[73.196399268687273,54.996513152165576],[73.197362049986836,54.997109508732414],[73.196859358865836,54.997351967378243],[73.196108969003731,54.996913059424358]]]}},
{"type":"Feature","properties":{"id":null},"geometry":{"type":"MultiLineString","coordinates":[[[73.197362049986836,54.997109508732407],[73.196999941975932,54.997338497492066],[73.197315188950114,54.997541769836658],[73.198997926177228,54.9977964710734],[73.199279092397433,54.997823410532312],[73.199669240192179,54.997756845635493]]]}},
{"type":"Feature","properties":{"id":null},"geometry":{"type":"MultiLineString","coordinates":[[[73.196367317980446,54.995266530011229],[73.196715653815488,54.995439427937427]]]}}
]
}
